{
  "type": "FeatureCollection",
  "features": [
    {
      "type": "Feature",
      "properties": {
        "norad_id": 32088,
        "name": "FENGYUN 1C DEB",
        "group": "fengyun-1c-debris",
        "lat": -62.9335040757247,
        "lon": 14.573590535764929,
        "alt_km": 1205.7175157130723,
        "timestamp": "2025-12-18T21:31:51.286846+00:00",
        "meta_object_name": "FENGYUN 1C DEB",
        "meta_object_id": "1999-025CQE",
        "meta_epoch": "2025-12-17T11:38:57.027264",
        "meta_mean_motion": 13.2520246,
        "meta_eccentricity": 0.04616667,
        "meta_inclination": 102.401,
        "meta_ra_of_asc_node": 218.3923,
        "meta_arg_of_pericenter": 346.9232,
        "meta_mean_anomaly": 12.0236,
        "meta_ephemeris_type": 0,
        "meta_classification_type": "U",
        "meta_norad_cat_id": 32088,
        "meta_element_set_no": 999,
        "meta_rev_at_epoch": 59907,
        "meta_bstar": 0.0024829514,
        "meta_mean_motion_dot": 1.854e-05,
        "meta_mean_motion_ddot": 0,
        "tle_line1": "1 32088U 99025CQE 25351.48538226  .00001854  00000+0  24830-2 0  9996",
        "tle_line2": "2 32088 102.4010 218.3923 0461666 346.9232  12.0236 13.25202460599076"
      },
      "geometry": {
        "type": "Point",
        "coordinates": [
          14.573590535764929,
          -62.9335040757247
        ]
      }
    },
    {
      "type": "Feature",
      "properties": {
        "norad_id": 32089,
        "name": "FENGYUN 1C DEB",
        "group": "fengyun-1c-debris",
        "lat": 26.099467571562727,
        "lon": -177.44166163760974,
        "alt_km": 788.5746879492826,
        "timestamp": "2025-12-18T21:31:51.286856+00:00",
        "meta_object_name": "FENGYUN 1C DEB",
        "meta_object_id": "1999-025CQF",
        "meta_epoch": "2025-12-16T17:52:20.830656",
        "meta_mean_motion": 14.14077902,
        "meta_eccentricity": 0.01123897,
        "meta_inclination": 98.6547,
        "meta_ra_of_asc_node": 356.1944,
        "meta_arg_of_pericenter": 112.6503,
        "meta_mean_anomaly": 248.6602,
        "meta_ephemeris_type": 0,
        "meta_classification_type": "U",
        "meta_norad_cat_id": 32089,
        "meta_element_set_no": 999,
        "meta_rev_at_epoch": 63272,
        "meta_bstar": 0.00051322825,
        "meta_mean_motion_dot": 9.96e-06,
        "meta_mean_motion_ddot": 0,
        "tle_line1": "1 32089U 99025CQF 25350.74468554  .00000996  00000+0  51323-3 0  9995",
        "tle_line2": "2 32089  98.6547 356.1944 0112389 112.6503 248.6602 14.14077902632720"
      },
      "geometry": {
        "type": "Point",
        "coordinates": [
          -177.44166163760974,
          26.099467571562727
        ]
      }
    },
    {
      "type": "Feature",
      "properties": {
        "norad_id": 32093,
        "name": "FENGYUN 1C DEB",
        "group": "fengyun-1c-debris",
        "lat": -31.562343420939694,
        "lon": 20.425815872834328,
        "alt_km": 803.3131363594266,
        "timestamp": "2025-12-18T21:31:51.286866+00:00",
        "meta_object_name": "FENGYUN 1C DEB",
        "meta_object_id": "1999-025CQK",
        "meta_epoch": "2025-12-17T21:09:28.777248",
        "meta_mean_motion": 14.37620073,
        "meta_eccentricity": 0.00791445,
        "meta_inclination": 98.9196,
        "meta_ra_of_asc_node": 204.9088,
        "meta_arg_of_pericenter": 338.4281,
        "meta_mean_anomaly": 21.3576,
        "meta_ephemeris_type": 0,
        "meta_classification_type": "U",
        "meta_norad_cat_id": 32093,
        "meta_element_set_no": 999,
        "meta_rev_at_epoch": 96591,
        "meta_bstar": 0.00035426884,
        "meta_mean_motion_dot": 1.054e-05,
        "meta_mean_motion_ddot": 0,
        "tle_line1": "1 32093U 99025CQK 25351.88158307  .00001054  00000+0  35427-3 0  9991",
        "tle_line2": "2 32093  98.9196 204.9088 0079144 338.4281  21.3576 14.37620073965913"
      },
      "geometry": {
        "type": "Point",
        "coordinates": [
          20.425815872834328,
          -31.562343420939694
        ]
      }
    },
    {
      "type": "Feature",
      "properties": {
        "norad_id": 32094,
        "name": "FENGYUN 1C DEB",
        "group": "fengyun-1c-debris",
        "lat": 55.15047690967762,
        "lon": 175.91468479855732,
        "alt_km": 866.312625143064,
        "timestamp": "2025-12-18T21:31:51.286876+00:00",
        "meta_object_name": "FENGYUN 1C DEB",
        "meta_object_id": "1999-025CQL",
        "meta_epoch": "2025-12-18T05:37:23.192544",
        "meta_mean_motion": 14.10735181,
        "meta_eccentricity": 0.00340854,
        "meta_inclination": 98.7446,
        "meta_ra_of_asc_node": 342.4992,
        "meta_arg_of_pericenter": 252.5506,
        "meta_mean_anomaly": 107.1938,
        "meta_ephemeris_type": 0,
        "meta_classification_type": "U",
        "meta_norad_cat_id": 32094,
        "meta_element_set_no": 999,
        "meta_rev_at_epoch": 94442,
        "meta_bstar": 0.00030832592,
        "meta_mean_motion_dot": 5.11e-06,
        "meta_mean_motion_ddot": 0,
        "tle_line1": "1 32094U 99025CQL 25352.23429621  .00000511  00000+0  30833-3 0  9995",
        "tle_line2": "2 32094  98.7446 342.4992 0034085 252.5506 107.1938 14.10735181944429"
      },
      "geometry": {
        "type": "Point",
        "coordinates": [
          175.91468479855732,
          55.15047690967762
        ]
      }
    },
    {
      "type": "Feature",
      "properties": {
        "norad_id": 32095,
        "name": "FENGYUN 1C DEB",
        "group": "fengyun-1c-debris",
        "lat": 52.4503289779347,
        "lon": -3.081340005959152,
        "alt_km": 780.531644613874,
        "timestamp": "2025-12-18T21:31:51.286886+00:00",
        "meta_object_name": "FENGYUN 1C DEB",
        "meta_object_id": "1999-025CQM",
        "meta_epoch": "2025-12-15T20:21:45.511488",
        "meta_mean_motion": 14.16043198,
        "meta_eccentricity": 0.00791217,
        "meta_inclination": 98.6409,
        "meta_ra_of_asc_node": 5.3704,
        "meta_arg_of_pericenter": 83.3653,
        "meta_mean_anomaly": 277.6519,
        "meta_ephemeris_type": 0,
        "meta_classification_type": "U",
        "meta_norad_cat_id": 32095,
        "meta_element_set_no": 999,
        "meta_rev_at_epoch": 94861,
        "meta_bstar": 0.00026967089,
        "meta_mean_motion_dot": 5.07e-06,
        "meta_mean_motion_ddot": 0,
        "tle_line1": "1 32095U 99025CQM 25349.84844342  .00000507  00000+0  26967-3 0  9998",
        "tle_line2": "2 32095  98.6409   5.3704 0079121  83.3653 277.6519 14.16043198948616"
      },
      "geometry": {
        "type": "Point",
        "coordinates": [
          -3.081340005959152,
          52.4503289779347
        ]
      }
    },
    {
      "type": "Feature",
      "properties": {
        "norad_id": 32096,
        "name": "FENGYUN 1C DEB",
        "group": "fengyun-1c-debris",
        "lat": -8.633711931336444,
        "lon": 23.13107081193735,
        "alt_km": 996.7916188476356,
        "timestamp": "2025-12-18T21:31:51.286897+00:00",
        "meta_object_name": "FENGYUN 1C DEB",
        "meta_object_id": "1999-025CQN",
        "meta_epoch": "2025-12-18T00:50:45.116160",
        "meta_mean_motion": 13.90209528,
        "meta_eccentricity": 0.01345497,
        "meta_inclination": 99.0734,
        "meta_ra_of_asc_node": 20.8998,
        "meta_arg_of_pericenter": 125.6578,
        "meta_mean_anomaly": 235.7195,
        "meta_ephemeris_type": 0,
        "meta_classification_type": "U",
        "meta_norad_cat_id": 32096,
        "meta_element_set_no": 999,
        "meta_rev_at_epoch": 92935,
        "meta_bstar": 0.0011448743,
        "meta_mean_motion_dot": 1.482e-05,
        "meta_mean_motion_ddot": 0,
        "tle_line1": "1 32096U 99025CQN 25352.03524440  .00001482  00000+0  11449-2 0  9999",
        "tle_line2": "2 32096  99.0734  20.8998 0134549 125.6578 235.7195 13.90209528929359"
      },
      "geometry": {
        "type": "Point",
        "coordinates": [
          23.13107081193735,
          -8.633711931336444
        ]
      }
    },
    {
      "type": "Feature",
      "properties": {
        "norad_id": 32098,
        "name": "FENGYUN 1C DEB",
        "group": "fengyun-1c-debris",
        "lat": -23.79437849591438,
        "lon": -10.98640486524429,
        "alt_km": 911.173979806872,
        "timestamp": "2025-12-18T21:31:51.286907+00:00",
        "meta_object_name": "FENGYUN 1C DEB",
        "meta_object_id": "1999-025CQQ",
        "meta_epoch": "2025-12-17T05:04:00.480288",
        "meta_mean_motion": 14.20263212,
        "meta_eccentricity": 0.01958107,
        "meta_inclination": 98.6122,
        "meta_ra_of_asc_node": 343.5394,
        "meta_arg_of_pericenter": 106.9951,
        "meta_mean_anomaly": 255.2785,
        "meta_ephemeris_type": 0,
        "meta_classification_type": "U",
        "meta_norad_cat_id": 32098,
        "meta_element_set_no": 999,
        "meta_rev_at_epoch": 64291,
        "meta_bstar": 0.00022141039,
        "meta_mean_motion_dot": 5.31e-06,
        "meta_mean_motion_ddot": 0,
        "tle_line1": "1 32098U 99025CQQ 25351.21111667  .00000531  00000+0  22141-3 0  9999",
        "tle_line2": "2 32098  98.6122 343.5394 0195810 106.9951 255.2785 14.20263212642917"
      },
      "geometry": {
        "type": "Point",
        "coordinates": [
          -10.98640486524429,
          -23.79437849591438
        ]
      }
    }
  ]
}